     2.100          NAVIGATION                              RINEX VERSION / TYPE
fic2rin                                 11/27/2009 01:00:15 PGM / RUN BY / DATE
                                                            END OF HEADER
19 09 11 26 11 59 44.0 -.710133463144D-06 -.193267624127D-11  .000000000000D+00
     .280000000000D+02 -.288750000000D+02  .469555273148D-08  .808475687320D+00
    -.149756669998D-05  .591520522721D-02  .897049903870D-05  .515367540169D+04
     .388784000000D+06  .987201929092D-07  .165533108019D+01  .353902578354D-07
     .957197400714D+00  .200750000000D+03 -.195910438673D+00 -.807997942072D-08
    -.279297348141D-09  .100000000000D+01  .155900000000D+04  .000000000000D+00
     .240000000000D+01  .000000000000D+00 -.144354999065D-07  .280000000000D+02
     .383346000000D+06  .400000000000D+01
30 09 11 26 11 59 44.0  .196447130293D-03  .318323145621D-11  .000000000000D+00
     .540000000000D+02 -.179375000000D+02  .494913472276D-08  .254702636779D+01
    -.102072954178D-05  .119131002575D-01  .533275306225D-05  .515364295769D+04
     .388784000000D+06  .949949026108D-07  .488978580309D+00 -.108033418655D-06
     .954097344178D+00  .269312500000D+03  .146941537244D+01 -.814462497061D-08
     .853606984729D-10  .100000000000D+01  .155900000000D+04  .000000000000D+00
     .240000000000D+01  .000000000000D+00 -.791624188423D-08  .540000000000D+02
     .385986000000D+06  .400000000000D+01
10 09 11 26 11 59 44.0 -.291587784886D-04 -.795807864051D-12  .000000000000D+00
     .400000000000D+01  .241562500000D+02  .484520182210D-08  .160750505513D+01
     .130012631416D-05  .879958085716D-02  .503286719322D-05  .515340666962D+04
     .388784000000D+06 -.128522515297D-06 -.258593343190D+01  .745058059692D-07
     .956017549968D+00  .283906250000D+03  .623600064589D+00 -.844713757147D-08
    -.172507185617D-09  .100000000000D+01  .155900000000D+04  .000000000000D+00
     .240000000000D+01  .000000000000D+00 -.279396772385D-08  .400000000000D+01
     .387486000000D+06  .400000000000D+01
14 09 11 26 11 59 44.0 -.196518376470D-04  .477484718431D-11  .000000000000D+00
     .600000000000D+01 -.411250000000D+02  .381444460121D-08  .971340442125D+00
    -.218115746975D-05  .509598792996D-02  .824779272079D-05  .515367885017D+04
     .388784000000D+06 -.968575477600D-07 -.151908421346D+01 -.279396772385D-07
     .987216687435D+00  .232781250000D+03 -.211095642736D+01 -.786389899153D-08
    -.201436962087D-09  .100000000000D+01  .155900000000D+04  .000000000000D+00
     .240000000000D+01  .000000000000D+00 -.884756445885D-08  .600000000000D+01
     .387846000000D+06  .400000000000D+01
10 09 11 26 13 59 44.0 -.291643664241D-04 -.795807864051D-12  .000000000000D+00
     .700000000000D+02  .231875000000D+02  .477377027526D-08  .265782437744D+01
     .109337270260D-05  .879938283470D-02  .479817390442D-05  .515340724754D+04
     .395984000000D+06 -.633299350739D-07 -.258599404791D+01 -.141561031342D-06
     .956017425620D+00  .285906250000D+03  .623627169535D+00 -.825248660633D-08
    -.992898501065D-10  .100000000000D+01  .155900000000D+04  .000000000000D+00
     .240000000000D+01  .000000000000D+00 -.279396772385D-08  .700000000000D+02
     .388806000000D+06  .400000000000D+01
14 09 11 26 13 59 44.0 -.196173787117D-04  .477484718431D-11  .000000000000D+00
     .700000000000D+01 -.451875000000D+02  .374515600078D-08  .202146855958D+01
    -.230409204960D-05  .509647291619D-02  .850856304169D-05  .515367934418D+04
     .395984000000D+06 -.484287738800D-07 -.151914087813D+01 -.134110450745D-06
     .987215635597D+00  .226843750000D+03 -.211091273146D+01 -.778175271266D-08
    -.173935816553D-09  .100000000000D+01  .155900000000D+04  .000000000000D+00
     .240000000000D+01  .000000000000D+00 -.884756445885D-08  .700000000000D+01
     .388806000000D+06  .400000000000D+01
19 09 11 26 13 59 44.0 -.724568963051D-06 -.193267624127D-11  .000000000000D+00
     .290000000000D+02 -.314375000000D+02  .472519682341D-08  .185856906925D+01
    -.140815973282D-05  .591483374592D-02  .946596264839D-05  .515367620659D+04
     .395984000000D+06  .409781932831D-07  .165527323495D+01  .819563865662D-07
     .957195316056D+00  .193468750000D+03 -.195822284693D+00 -.804783522464D-08
    -.301798285396D-09  .100000000000D+01  .155900000000D+04  .000000000000D+00
     .240000000000D+01  .000000000000D+00 -.144354999065D-07  .290000000000D+02
     .388806000000D+06  .400000000000D+01
20 09 11 26 13 59 44.0  .667660497129D-04 -.795807864051D-12  .000000000000D+00
     .300000000000D+01  .311875000000D+02  .513557106001D-08 -.221021345142D+01
     .165216624737D-05  .402349594515D-02  .427849590778D-05  .515372994423D+04
     .395984000000D+06  .800937414169D-07 -.263721012961D+01 -.260770320892D-07
     .939810047341D+00  .287375000000D+03  .128963398595D+01 -.844213736319D-08
    -.696457581682D-10  .100000000000D+01  .155900000000D+04  .000000000000D+00
     .240000000000D+01  .000000000000D+00 -.745058059692D-08  .300000000000D+01
     .388806000000D+06  .400000000000D+01
26 09 11 26 13 59 44.0  .143283978105D-05 -.227373675443D-11  .000000000000D+00
     .220000000000D+02 -.350312500000D+02  .376372820296D-08 -.761733396362D+00
    -.143982470036D-05  .196261911187D-01  .862032175064D-05  .515361693573D+04
     .395984000000D+06 -.130385160446D-07 -.150124898333D+01  .337138772011D-06
     .991619323302D+00  .229500000000D+03  .104415227558D+01 -.803247744207D-08
    -.151792037033D-09  .100000000000D+01  .155900000000D+04  .000000000000D+00
     .240000000000D+01  .000000000000D+00 -.605359673500D-08  .220000000000D+02
     .388806000000D+06  .400000000000D+01
30 09 11 26 13 59 44.0  .196469947696D-03  .318323145621D-11  .000000000000D+00
     .550000000000D+02 -.181875000000D+02  .498377902297D-08 -.268595255289D+01
    -.948086380959D-06  .119128309889D-01  .553578138351D-05  .515364345551D+04
     .395984000000D+06  .158324837685D-06  .488919147799D+00  .521540641785D-07
     .954098338963D+00  .267218750000D+03  .146941227837D+01 -.816569727693D-08
     .216794744657D-09  .100000000000D+01  .155900000000D+04  .000000000000D+00
     .240000000000D+01  .000000000000D+00 -.791624188423D-08  .550000000000D+02
     .388806000000D+06  .400000000000D+01
 1 09 11 26 14  0  0.0 -.668675638735D-04 -.238742359215D-11  .000000000000D+00
     .430000000000D+02 -.197812500000D+02  .609025368351D-08 -.228695584585D+01
    -.104680657387D-05  .380733422935D-02  .582076609135D-05  .515367007828D+04
     .396000000000D+06  .447034835815D-07  .526319889050D+00 -.186264514923D-07
     .962805135830D+00  .268718750000D+03  .969675979285D+00 -.821069915143D-08
     .171435712414D-09  .100000000000D+01  .155900000000D+04  .000000000000D+00
     .240000000000D+01  .630000000000D+02 -.190921127796D-07  .430000000000D+02
     .388806000000D+06  .400000000000D+01
 2 09 11 26 14  0  0.0  .196246430278D-03  .466116034659D-11  .000000000000D+00
     .650000000000D+02  .614687500000D+02  .502520932014D-08  .144605657619D+01
     .326335430145D-05  .919062353205D-02  .861845910549D-05  .515374292374D+04
     .396000000000D+06  .596046447754D-07  .261241048925D+01  .180676579475D-06
     .940683113925D+00  .202281250000D+03  .291892285242D+01 -.825927260328D-08
    -.102147111980D-09  .100000000000D+01  .155900000000D+04  .000000000000D+00
     .240000000000D+01  .000000000000D+00 -.172294676304D-07  .650000000000D+02
     .388806000000D+06  .400000000000D+01
 3 09 11 26 14  0  0.0  .479751732200D-03  .511590769747D-11  .000000000000D+00
     .490000000000D+02 -.488750000000D+02  .555344560901D-08  .120690330021D+01
    -.240467488766D-05  .126993508311D-01  .886619091034D-05  .515367340088D+04
     .396000000000D+06 -.210478901863D-06  .146221992209D+01  .577419996262D-07
     .926293139256D+00  .193968750000D+03  .969425678391D+00 -.866821820894D-08
    -.324299222650D-09  .100000000000D+01  .155900000000D+04  .000000000000D+00
     .340000000000D+01  .000000000000D+00 -.419095158577D-08  .490000000000D+02
     .388806000000D+06  .400000000000D+01
 4 09 11 26 14  0  0.0 -.377737451345D-03 -.183035808732D-10  .000000000000D+00
     .140000000000D+02  .589687500000D+02  .499163649312D-08 -.195958536933D+01
     .293552875519D-05  .905415473972D-02  .849552452564D-05  .515358231163D+04
     .396000000000D+06  .614672899246D-07  .263053359240D+01 -.633299350739D-07
     .939872057512D+00  .204718750000D+03  .563564871950D+00 -.818855537191D-08
     .123576576032D-09  .100000000000D+01  .155900000000D+04  .000000000000D+00
     .240000000000D+01  .000000000000D+00 -.605359673500D-08  .140000000000D+02
     .388806000000D+06  .400000000000D+01
 5 09 11 26 14  0  0.0 -.379891134799D-04  .625277607469D-11  .000000000000D+00
     .105000000000D+03  .262812500000D+02  .473198282036D-08  .285607898727D+01
     .134110450745D-05  .169189483859D-02  .487640500069D-05  .515360243416D+04
     .396000000000D+06 -.111758708954D-07 -.261277362501D+01 -.130385160446D-07
     .960964878513D+00  .287375000000D+03  .248660256852D+00 -.830070290045D-08
    -.101432796512D-09  .100000000000D+01  .155900000000D+04  .000000000000D+00
     .340000000000D+01  .000000000000D+00 -.884756445885D-08  .105000000000D+03
     .388806000000D+06  .400000000000D+01
 6 09 11 26 14  0  0.0  .262710265815D-03  .125055521494D-11  .000000000000D+00
     .500000000000D+02 -.454375000000D+02  .523486091011D-08 -.277635173963D+01
    -.221841037273D-05  .577696284745D-02  .882148742676D-05  .515366647720D+04
     .396000000000D+06  .335276126862D-07  .153135762216D+01  .726431608200D-07
     .933701912318D+00  .191593750000D+03 -.120243329404D+01 -.825927260328D-08
    -.205008539429D-09  .100000000000D+01  .155900000000D+04  .000000000000D+00
     .240000000000D+01  .000000000000D+00 -.512227416039D-08  .500000000000D+02
     .388806000000D+06  .400000000000D+01
